[{"OBJECT_NAME":"STARLINK-31705","OBJECT_ID":"2024-062J","EPOCH":"2026-03-09T21:47:54.701664","MEAN_MOTION":15.3019285,"ECCENTRICITY":0.00018979,"INCLINATION":53.1595,"RA_OF_ASC_NODE":254.7329,"ARG_OF_PERICENTER":107.0611,"MEAN_ANOMALY":253.0598,"EPHEMERIS_TYPE":0,"CLASSIFICATION_TYPE":"U","NORAD_CAT_ID":59382,"ELEMENT_SET_NO":999,"REV_AT_EPOCH":10966,"BSTAR":-7.73978e-6,"MEAN_MOTION_DOT":-5.89e-6,"MEAN_MOTION_DDOT":0},{"OBJECT_NAME":"TEVEL2-1","OBJECT_ID":"2025-052H","EPOCH":"2026-03-09T15:32:51.927072","MEAN_MOTION":15.30341923,"ECCENTRICITY":0.0004767,"INCLINATION":97.3991,"RA_OF_ASC_NODE":324.7682,"ARG_OF_PERICENTER":104.8919,"MEAN_ANOMALY":255.2849,"EPHEMERIS_TYPE":0,"CLASSIFICATION_TYPE":"U","NORAD_CAT_ID":63217,"ELEMENT_SET_NO":999,"REV_AT_EPOCH":5485,"BSTAR":0.000706,"MEAN_MOTION_DOT":0.00020683,"MEAN_MOTION_DDOT":0}]
